{
  "type": "FeatureCollection",
  "features": [
    {
      "type": "Feature",
      "properties": { "name": "黑龙江" },
      "geometry": {
        "type": "Polygon",
        "coordinates": [[
          [121.5, 53.5], [135.0, 53.5], [135.0, 43.5], [121.5, 43.5], [121.5, 53.5]
        ]]
      }
    },
    {
      "type": "Feature",
      "properties": { "name": "吉林" },
      "geometry": {
        "type": "Polygon",
        "coordinates": [[
          [121.5, 46.0], [131.0, 46.0], [131.0, 40.5], [121.5, 40.5], [121.5, 46.0]
        ]]
      }
    },
    {
      "type": "Feature",
      "properties": { "name": "辽宁" },
      "geometry": {
        "type": "Polygon",
        "coordinates": [[
          [118.5, 43.5], [125.5, 43.5], [125.5, 38.5], [118.5, 38.5], [118.5, 43.5]
        ]]
      }
    },
    {
      "type": "Feature",
      "properties": { "name": "内蒙古" },
      "geometry": {
        "type": "Polygon",
        "coordinates": [[
          [97.0, 53.0], [126.0, 53.0], [126.0, 37.5], [97.0, 37.5], [97.0, 53.0]
        ]]
      }
    },
    {
      "type": "Feature",
      "properties": { "name": "北京" },
      "geometry": {
        "type": "Polygon",
        "coordinates": [[
          [115.5, 41.0], [117.5, 41.0], [117.5, 39.5], [115.5, 39.5], [115.5, 41.0]
        ]]
      }
    },
    {
      "type": "Feature",
      "properties": { "name": "天津" },
      "geometry": {
        "type": "Polygon",
        "coordinates": [[
          [116.7, 40.2], [118.0, 40.2], [118.0, 38.6], [116.7, 38.6], [116.7, 40.2]
        ]]
      }
    },
    {
      "type": "Feature",
      "properties": { "name": "河北" },
      "geometry": {
        "type": "Polygon",
        "coordinates": [[
          [113.5, 42.5], [119.5, 42.5], [119.5, 36.0], [113.5, 36.0], [113.5, 42.5]
        ]]
      }
    },
    {
      "type": "Feature",
      "properties": { "name": "山西" },
      "geometry": {
        "type": "Polygon",
        "coordinates": [[
          [110.0, 40.5], [114.5, 40.5], [114.5, 34.5], [110.0, 34.5], [110.0, 40.5]
        ]]
      }
    },
    {
      "type": "Feature",
      "properties": { "name": "陕西" },
      "geometry": {
        "type": "Polygon",
        "coordinates": [[
          [105.5, 39.5], [111.0, 39.5], [111.0, 31.5], [105.5, 31.5], [105.5, 39.5]
        ]]
      }
    },
    {
      "type": "Feature",
      "properties": { "name": "山东" },
      "geometry": {
        "type": "Polygon",
        "coordinates": [[
          [114.5, 38.5], [122.5, 38.5], [122.5, 34.5], [114.5, 34.5], [114.5, 38.5]
        ]]
      }
    },
    {
      "type": "Feature",
      "properties": { "name": "河南" },
      "geometry": {
        "type": "Polygon",
        "coordinates": [[
          [110.5, 36.5], [116.5, 36.5], [116.5, 31.5], [110.5, 31.5], [110.5, 36.5]
        ]]
      }
    },
    {
      "type": "Feature",
      "properties": { "name": "江苏" },
      "geometry": {
        "type": "Polygon",
        "coordinates": [[
          [116.5, 35.0], [121.5, 35.0], [121.5, 30.5], [116.5, 30.5], [116.5, 35.0]
        ]]
      }
    },
    {
      "type": "Feature",
      "properties": { "name": "安徽" },
      "geometry": {
        "type": "Polygon",
        "coordinates": [[
          [114.5, 34.5], [119.5, 34.5], [119.5, 29.5], [114.5, 29.5], [114.5, 34.5]
        ]]
      }
    },
    {
      "type": "Feature",
      "properties": { "name": "湖北" },
      "geometry": {
        "type": "Polygon",
        "coordinates": [[
          [108.5, 33.5], [116.5, 33.5], [116.5, 29.0], [108.5, 29.0], [108.5, 33.5]
        ]]
      }
    },
    {
      "type": "Feature",
      "properties": { "name": "四川" },
      "geometry": {
        "type": "Polygon",
        "coordinates": [[
          [97.5, 34.0], [108.5, 34.0], [108.5, 26.0], [97.5, 26.0], [97.5, 34.0]
        ]]
      }
    },
    {
      "type": "Feature",
      "properties": { "name": "重庆" },
      "geometry": {
        "type": "Polygon",
        "coordinates": [[
          [105.5, 32.0], [110.0, 32.0], [110.0, 28.0], [105.5, 28.0], [105.5, 32.0]
        ]]
      }
    },
    {
      "type": "Feature",
      "properties": { "name": "湖南" },
      "geometry": {
        "type": "Polygon",
        "coordinates": [[
          [108.5, 30.5], [114.5, 30.5], [114.5, 24.5], [108.5, 24.5], [108.5, 30.5]
        ]]
      }
    },
    {
      "type": "Feature",
      "properties": { "name": "江西" },
      "geometry": {
        "type": "Polygon",
        "coordinates": [[
          [113.5, 30.0], [118.5, 30.0], [118.5, 24.5], [113.5, 24.5], [113.5, 30.0]
        ]]
      }
    },
    {
      "type": "Feature",
      "properties": { "name": "浙江" },
      "geometry": {
        "type": "Polygon",
        "coordinates": [[
          [118.0, 31.0], [123.0, 31.0], [123.0, 27.0], [118.0, 27.0], [118.0, 31.0]
        ]]
      }
    },
    {
      "type": "Feature",
      "properties": { "name": "福建" },
      "geometry": {
        "type": "Polygon",
        "coordinates": [[
          [115.5, 28.5], [120.5, 28.5], [120.5, 23.5], [115.5, 23.5], [115.5, 28.5]
        ]]
      }
    },
    {
      "type": "Feature",
      "properties": { "name": "广东" },
      "geometry": {
        "type": "Polygon",
        "coordinates": [[
          [109.5, 25.5], [117.5, 25.5], [117.5, 20.0], [109.5, 20.0], [109.5, 25.5]
        ]]
      }
    },
    {
      "type": "Feature",
      "properties": { "name": "广西" },
      "geometry": {
        "type": "Polygon",
        "coordinates": [[
          [104.5, 26.5], [112.0, 26.5], [112.0, 20.5], [104.5, 20.5], [104.5, 26.5]
        ]]
      }
    },
    {
      "type": "Feature",
      "properties": { "name": "贵州" },
      "geometry": {
        "type": "Polygon",
        "coordinates": [[
          [103.5, 29.5], [109.5, 29.5], [109.5, 24.5], [103.5, 24.5], [103.5, 29.5]
        ]]
      }
    },
    {
      "type": "Feature",
      "properties": { "name": "云南" },
      "geometry": {
        "type": "Polygon",
        "coordinates": [[
          [97.5, 29.0], [106.0, 29.0], [106.0, 21.0], [97.5, 21.0], [97.5, 29.0]
        ]]
      }
    },
    {
      "type": "Feature",
      "properties": { "name": "西藏" },
      "geometry": {
        "type": "Polygon",
        "coordinates": [[
          [78.5, 36.0], [99.0, 36.0], [99.0, 26.5], [78.5, 26.5], [78.5, 36.0]
        ]]
      }
    },
    {
      "type": "Feature",
      "properties": { "name": "青海" },
      "geometry": {
        "type": "Polygon",
        "coordinates": [[
          [89.5, 39.5], [103.0, 39.5], [103.0, 31.5], [89.5, 31.5], [89.5, 39.5]
        ]]
      }
    },
    {
      "type": "Feature",
      "properties": { "name": "甘肃" },
      "geometry": {
        "type": "Polygon",
        "coordinates": [[
          [92.5, 42.5], [108.5, 42.5], [108.5, 32.5], [92.5, 32.5], [92.5, 42.5]
        ]]
      }
    },
    {
      "type": "Feature",
      "properties": { "name": "宁夏" },
      "geometry": {
        "type": "Polygon",
        "coordinates": [[
          [104.0, 39.5], [107.5, 39.5], [107.5, 35.0], [104.0, 35.0], [104.0, 39.5]
        ]]
      }
    },
    {
      "type": "Feature",
      "properties": { "name": "新疆" },
      "geometry": {
        "type": "Polygon",
        "coordinates": [[
          [73.5, 49.0], [96.5, 49.0], [96.5, 34.5], [73.5, 34.5], [73.5, 49.0]
        ]]
      }
    },
    {
      "type": "Feature",
      "properties": { "name": "海南" },
      "geometry": {
        "type": "Polygon",
        "coordinates": [[
          [108.5, 20.5], [111.5, 20.5], [111.5, 18.0], [108.5, 18.0], [108.5, 20.5]
        ]]
      }
    },
    {
      "type": "Feature",
      "properties": { "name": "上海" },
      "geometry": {
        "type": "Polygon",
        "coordinates": [[
          [120.8, 31.5], [122.0, 31.5], [122.0, 30.7], [120.8, 30.7], [120.8, 31.5]
        ]]
      }
    }
  ]
}
